STARLINK-30291          
1 57856U 23141S   26142.70170661  .00001179  00000+0  49744-4 0  9994
2 57856  53.1603 300.0573 0001140  75.0718 285.0410 15.31697891151662
STARLINK-30424          
1 57857U 23141T   26142.65975994  .00000735  00000+0  36956-4 0  9999
2 57857  53.1597 274.5362 0001077  94.6163 265.4961 15.30196446152018
STARLINK-30290          
1 57858U 23141U   26142.71041429  .00000954  00000+0  44351-4 0  9995
2 57858  53.1618 300.1089 0001020  80.4405 279.6711 15.30190424151665
STARLINK-30414          
1 57859U 23141V   26142.70724759  .00000472  00000+0  28070-4 0  9994
2 57859  53.1602 300.0885 0001332  85.8270 274.2883 15.30193621151660
STARLINK-30272          
1 57860U 23141W   26142.44537038  .00000909  00000+0  41037-4 0  9992
2 57860  53.1610 301.2980 0001142  75.4849 284.6279 15.31703297151623
STARLINK-30432          
1 57864U 23144A   26142.67093763  .00001469  00000+0  62883-4 0  9990
2 57864  43.0009 227.2537 0001397 267.9276  92.1416 15.27581350148918
STARLINK-30427          
1 57865U 23144B   26142.67479122  .00002046  00000+0  83867-4 0  9995
2 57865  43.0012 227.2763 0002659 286.4919  73.5640 15.27583740148913
STARLINK-30393          
1 57866U 23144C   26142.59784029  .00001963  00000+0  80836-4 0  9992
2 57866  42.9996 227.5578 0001499 270.3013  89.7667 15.27584601148902
STARLINK-30439          
1 57867U 23144D   26142.54786109  .00011722  00000+0  43461-3 0  9995
2 57867  43.0045 228.0472 0000920 243.2706 116.8052 15.27596382148948
STARLINK-30442          
1 57868U 23144E   26142.61710990  .00000116  00000+0  13731-4 0  9992
2 57868  43.0012 227.6601 0001209 269.6029  90.4684 15.27574968148903
STARLINK-30441          
1 57869U 23144F   26142.53630047  .00001038  00000+0  47240-4 0  9994
2 57869  43.0015 227.9154 0001349 274.4735  85.5962 15.27576322148894
STARLINK-30460          
1 57870U 23144G   26142.55429240  .00002430  00000+0  97843-4 0  9990
2 57870  43.0061 228.0841 0001892 244.3011 115.7645 15.27572924148942
STARLINK-30444          
1 57871U 23144H   26142.62739630  .00007980  00000+0  29920-3 0  9991
2 57871  43.0008 227.7829 0001678 269.2181  90.8478 15.27579621148669
STARLINK-30446          
1 57872U 23144J   26142.51387383  .00000806  00000+0  38830-4 0  9995
2 57872  43.0041 214.1557 0001297 260.7363  99.3342 15.27574518148822
STARLINK-30445          
1 57873U 23144K   26142.62354294  .00001484  00000+0  63443-4 0  9994
2 57873  43.0030 227.7539 0001079 275.3516  84.7213 15.27569479148905
STARLINK-30447          
1 57874U 23144L   26142.58049154  .00000020  00000+0  10241-4 0  9999
2 57874  43.0009 202.1583 0001357 265.5165  94.5531 15.27581076149234
STARLINK-30434          
1 57875U 23144M   26142.63510769  .00006360  00000+0  24059-3 0  9995
2 57875  43.0032 227.8348 0001656 259.4230 100.6436 15.27558032148958
STARLINK-30429          
1 57876U 23144N   26142.57357235  .00000920  00000+0  42969-4 0  9993
2 57876  43.0018 228.2357 0001601 257.8570 102.2102 15.27579207148930
STARLINK-30284          
1 57877U 23144P   26142.54340928 -.00003811  00000+0 -12912-3 0  9990
2 57877  43.0012 191.4729 0001679 275.0013  85.0647 15.27553805149353
STARLINK-30433          
1 57878U 23144Q   26142.65551934  .00002826  00000+0  11220-3 0  9998
2 57878  42.9997 227.1317 0001388 272.2482  87.8211 15.27576868148956
STARLINK-30358          
1 57879U 23144R   26142.59398955  .00000437  00000+0  25416-4 0  9993
2 57879  43.0002 227.5272 0001080 256.8046 103.2685 15.27579945148949
STARLINK-30436          
1 57880U 23144S   26142.60041286  .00000456  00000+0  26112-4 0  9994
2 57880  43.0006 227.5745 0001405 264.6441  95.4251 15.27574882148943
STARLINK-30339          
1 57882U 23144U   26142.58256797  .00006966  00000+0  26237-3 0  9997
2 57882  42.9985 228.2970 0001388 275.1019  84.9675 15.27586714148934
STARLINK-30282          
1 57883U 23144V   26142.71834145  .00000830  00000+0  39697-4 0  9991
2 57883  42.9984 226.7428 0001420 271.3303  88.7386 15.27571544148965
STARLINK-30340          
1 57884U 23144W   26142.59526704  .00003630  00000+0  14143-3 0  9996
2 57884  43.0010 227.5272 0000883 255.3743 104.7011 15.27569251148940
STARLINK-30279          
1 57885U 23144X   26142.65680017  .00005483  00000+0  20858-3 0  9990
2 57885  42.9991 227.1392 0001470 263.7391  96.3293 15.27585108148892
YAOGAN-39 02A           
1 57886U 23145A   26142.76633847  .00008122  00000+0  33671-3 0  9993
2 57886  35.0033   0.3286 0001756  69.3010 290.7893 15.23159840149298
YAOGAN-39 02B           
1 57889U 23145D   26142.76074565  .00004721  00000+0  23138-3 0  9990
2 57889  34.9919  22.8253 0003589 203.7613 156.2935 15.17546707149023
YAOGAN-39 02C           
1 57890U 23145E   26142.76370294  .00004432  00000+0  21744-3 0  9990
2 57890  34.9950  22.9304 0005760 199.4369 160.6125 15.17522769148997
STARLINK-30465          
1 57891U 23146A   26142.61730375 -.00000237  00000+0  89526-6 0  9991
2 57891  43.0014 256.6091 0001060 272.0439  88.0292 15.27582457148364
