OBJECT_NAME,OBJECT_ID,EPOCH,MEAN_MOTION,ECCENTRICITY,INCLINATION,RA_OF_ASC_NODE,ARG_OF_PERICENTER,MEAN_ANOMALY,EPHEMERIS_TYPE,CLASSIFICATION_TYPE,NORAD_CAT_ID,ELEMENT_SET_NO,REV_AT_EPOCH,BSTAR,MEAN_MOTION_DOT,MEAN_MOTION_DDOT
STARLINK-30291,2023-141S,2026-05-22T16:50:27.451104,15.31697891,.000114,53.1603,300.0573,75.0718,285.0410,0,U,57856,999,15166,.49744E-4,.1179E-4,0
STARLINK-30424,2023-141T,2026-05-22T15:50:03.258816,15.30196446,.0001077,53.1597,274.5362,94.6163,265.4961,0,U,57857,999,15201,.36956E-4,.735E-5,0
STARLINK-30290,2023-141U,2026-05-22T17:02:59.794656,15.30190424,.000102,53.1618,300.1089,80.4405,279.6711,0,U,57858,999,15166,.44351E-4,.954E-5,0
STARLINK-30414,2023-141V,2026-05-22T16:58:26.191776,15.30193621,.0001332,53.1602,300.0885,85.8270,274.2883,0,U,57859,999,15166,.2807E-4,.472E-5,0
STARLINK-30272,2023-141W,2026-05-22T10:41:20.000832,15.31703297,.00011422,53.1610,301.2980,75.4849,284.6279,0,U,57860,999,15162,.41036988E-4,.909E-5,0
STARLINK-30432,2023-144A,2026-05-22T16:06:09.011232,15.27581350,.0001397,43.0009,227.2537,267.9276,92.1416,0,U,57864,999,14891,.62883E-4,.1469E-4,0
STARLINK-30427,2023-144B,2026-05-22T16:11:41.961408,15.27583740,.0002659,43.0012,227.2763,286.4919,73.5640,0,U,57865,999,14891,.83867E-4,.2046E-4,0
STARLINK-30393,2023-144C,2026-05-22T14:20:53.401056,15.27584601,.0001499,42.9996,227.5578,270.3013,89.7667,0,U,57866,999,14890,.80836E-4,.1963E-4,0
STARLINK-30439,2023-144D,2026-05-22T13:08:55.198176,15.27596382,.000092,43.0045,228.0472,243.2706,116.8052,0,U,57867,999,14894,.43461E-3,.11722E-3,0
STARLINK-30442,2023-144E,2026-05-22T14:48:38.295360,15.27574968,.0001209,43.0012,227.6601,269.6029,90.4684,0,U,57868,999,14890,.13731E-4,.116E-5,0
STARLINK-30441,2023-144F,2026-05-22T12:52:16.360608,15.27576322,.0001349,43.0015,227.9154,274.4735,85.5962,0,U,57869,999,14889,.4724E-4,.1038E-4,0
STARLINK-30460,2023-144G,2026-05-22T13:18:10.863360,15.27572924,.0001892,43.0061,228.0841,244.3011,115.7645,0,U,57870,999,14894,.97843E-4,.243E-4,0
STARLINK-30444,2023-144H,2026-05-22T15:03:27.040320,15.27579621,.0001678,43.0008,227.7829,269.2181,90.8478,0,U,57871,999,14866,.2992E-3,.798E-4,0
STARLINK-30446,2023-144J,2026-05-22T12:19:58.698912,15.27574518,.0001297,43.0041,214.1557,260.7363,99.3342,0,U,57872,999,14882,.3883E-4,.806E-5,0
STARLINK-30445,2023-144K,2026-05-22T14:57:54.110016,15.27569479,.0001079,43.0030,227.7539,275.3516,84.7213,0,U,57873,999,14890,.63443E-4,.1484E-4,0
STARLINK-30447,2023-144L,2026-05-22T13:55:54.469056,15.27581076,.0001357,43.0009,202.1583,265.5165,94.5531,0,U,57874,999,14923,.10241E-4,.2E-6,0
STARLINK-30434,2023-144M,2026-05-22T15:14:33.304416,15.27558032,.0001656,43.0032,227.8348,259.4230,100.6436,0,U,57875,999,14895,.24059E-3,.636E-4,0
STARLINK-30429,2023-144N,2026-05-22T13:45:56.651040,15.27579207,.0001601,43.0018,228.2357,257.8570,102.2102,0,U,57876,999,14893,.42969E-4,.92E-5,0
STARLINK-30284,2023-144P,2026-05-22T13:02:30.561792,15.27553805,.0001679,43.0012,191.4729,275.0013,85.0647,0,U,57877,999,14935,-.12912E-3,-.3811E-4,0
STARLINK-30433,2023-144Q,2026-05-22T15:43:56.870976,15.27576868,.0001388,42.9997,227.1317,272.2482,87.8211,0,U,57878,999,14895,.1122E-3,.2826E-4,0
STARLINK-30358,2023-144R,2026-05-22T14:15:20.697120,15.27579945,.000108,43.0002,227.5272,256.8046,103.2685,0,U,57879,999,14894,.25416E-4,.437E-5,0
STARLINK-30436,2023-144S,2026-05-22T14:24:35.671104,15.27574882,.0001405,43.0006,227.5745,264.6441,95.4251,0,U,57880,999,14894,.26112E-4,.456E-5,0
STARLINK-30339,2023-144U,2026-05-22T13:58:53.872608,15.27586714,.0001388,42.9985,228.2970,275.1019,84.9675,0,U,57882,999,14893,.26237E-3,.6966E-4,0
STARLINK-30282,2023-144V,2026-05-22T17:14:24.701280,15.27571544,.000142,42.9984,226.7428,271.3303,88.7386,0,U,57883,999,14896,.39697E-4,.83E-5,0
STARLINK-30340,2023-144W,2026-05-22T14:17:11.072256,15.27569251,.0000883,43.0010,227.5272,255.3743,104.7011,0,U,57884,999,14894,.14143E-3,.363E-4,0
STARLINK-30279,2023-144X,2026-05-22T15:45:47.534688,15.27585108,.000147,42.9991,227.1392,263.7391,96.3293,0,U,57885,999,14889,.20858E-3,.5483E-4,0
YAOGAN-39 02A,2023-145A,2026-05-22T18:23:31.643808,15.23159840,.0001756,35.0033,0.3286,69.3010,290.7893,0,U,57886,999,14929,.33671E-3,.8122E-4,0
YAOGAN-39 02B,2023-145D,2026-05-22T18:15:28.424160,15.17546707,.0003589,34.9919,22.8253,203.7613,156.2935,0,U,57889,999,14902,.23138E-3,.4721E-4,0
YAOGAN-39 02C,2023-145E,2026-05-22T18:19:43.934016,15.17522769,.000576,34.9950,22.9304,199.4369,160.6125,0,U,57890,999,14899,.21744E-3,.4432E-4,0
STARLINK-30465,2023-146A,2026-05-22T14:48:55.044000,15.27582457,.000106,43.0014,256.6091,272.0439,88.0292,0,U,57891,999,14836,.89526E-6,-.237E-5,0
